OBJECT_NAME,OBJECT_ID,EPOCH,MEAN_MOTION,ECCENTRICITY,INCLINATION,RA_OF_ASC_NODE,ARG_OF_PERICENTER,MEAN_ANOMALY,EPHEMERIS_TYPE,CLASSIFICATION_TYPE,NORAD_CAT_ID,ELEMENT_SET_NO,REV_AT_EPOCH,BSTAR,MEAN_MOTION_DOT,MEAN_MOTION_DDOT
INTELSAT 23 (IS-23),2012-057A,2026-07-11T20:09:02.246112,1.00274462,.0000236,0.0143,31.7549,152.6162,354.6151,0,U,38867,999,5020,0,-.281E-5,0
BEIDOU-2 G6,2012-059A,2026-07-11T22:57:21.785760,1.00274725,.0008854,4.4815,73.2546,327.1699,317.7276,0,U,38953,999,5015,0,-.176E-5,0
LUCH-5B,2012-061A,2026-07-11T20:19:33.068064,1.00270805,.0003796,10.5335,49.6307,144.9936,23.7538,0,U,38977,999,4985,0,-.142E-5,0
YAMAL 300K,2012-061B,2026-07-11T17:50:59.947296,1.00270675,.0000499,0.0301,228.5970,354.8725,156.8961,0,U,38978,999,4987,0,.76E-6,0
STAR ONE C3,2012-062A,2026-07-11T20:02:47.846400,1.00269526,.0002288,0.0145,340.4284,145.2644,29.7580,0,U,38991,999,5001,0,-.245E-5,0
ECHOSTAR 16,2012-065A,2026-07-09T20:12:11.553696,1.00271627,.00021244,0.0180,40.2507,68.3234,60.7553,0,U,39008,999,4987,0,-.27E-5,0
ZHONGXING-12,2012-067A,2026-07-12T01:20:38.543424,1.00273355,.0002654,0.0266,97.2485,15.8541,284.5007,0,U,39017,999,4975,0,-.204E-5,0
YAMAL 402,2012-070A,2026-07-10T17:17:18.225312,1.00272882,.00035884,1.3223,83.8652,25.4313,133.5748,0,U,39022,999,4963,0,.93E-6,0
MEXSAT 3,2012-075B,2026-07-11T16:26:05.568288,1.00269192,.0000944,0.0165,299.8868,159.1419,322.3112,0,U,39035,999,729,0,-.2E-6,0
TDRS 11,2013-004A,2026-07-11T17:51:44.875296,1.00278194,.0004682,3.5566,31.6478,30.1990,321.4995,0,U,39070,999,4693,0,.83E-6,0
AMAZONAS 3,2013-006A,2026-07-11T20:06:39.972960,1.00273416,.0003153,0.0617,229.7622,280.7477,19.8739,0,U,39078,999,4516,0,-.278E-5,0
SBIRS GEO-2 (USA 241),2013-011A,2026-07-11T13:19:19.450272,1.00271364,.0002065,4.5406,52.5104,49.8800,337.0966,0,U,39120,999,4878,0,-.285E-5,0
EUTELSAT 117 WEST A,2013-012A,2026-07-11T14:42:52.767072,1.00271350,.0002629,0.0149,38.1187,78.6527,276.6559,0,U,39122,999,4867,0,-.8E-7,0
ANIK G1,2013-014A,2026-07-11T16:28:12.863136,1.00271162,.0001621,0.0483,260.2995,223.4080,305.6280,0,U,39127,999,4849,0,-.69E-6,0
EUTELSAT 7B,2013-022A,2026-07-11T20:26:09.931776,1.00272134,.0003535,0.0645,6.3887,40.1665,196.7324,0,U,39163,999,4819,0,.52E-6,0
WGS F5 (USA 243),2013-024A,2026-07-11T18:26:26.549376,1.00269367,.0000403,0.0258,42.6036,197.5006,273.6772,0,U,39168,999,4742,0,0,0
SES-6,2013-026A,2026-07-11T20:12:31.912128,1.00271885,.000229,0.0320,312.9087,168.7125,70.7550,0,U,39172,999,4797,0,-.257E-5,0
IRNSS-1A,2013-034A,2026-07-10T17:17:25.712736,1.00281941,.0017567,35.7704,63.5328,183.4462,356.2994,0,U,39199,999,4760,0,.47E-6,0
MUOS-2,2013-036A,2026-07-11T17:48:00.232704,1.00271813,.0052436,5.0429,45.5545,176.3955,146.6410,0,U,39206,999,4743,0,-.13E-6,0
INSAT-3D,2013-038B,2026-07-11T19:18:22.104000,1.00270054,.0000506,1.9868,82.2295,84.5038,182.0874,0,U,39216,999,4732,0,-.337E-5,0
WGS F6 (USA 244),2013-041A,2026-07-11T16:20:13.629120,1.00271581,.0001054,0.0186,33.7590,190.2224,175.4792,0,U,39222,999,4630,0,.94E-6,0
GSAT-7,2013-044B,2026-07-11T21:22:01.194240,1.00271116,.0003216,0.1420,89.8484,177.1541,57.2444,0,U,39234,999,4550,0,-.73E-6,0
AMOS-4,2013-045A,2026-07-11T21:20:42.864000,1.00272238,.0002368,0.0402,260.0148,176.2274,238.7391,0,U,39237,999,4720,0,.11E-6,0
AEHF-3 (USA 246),2013-050A,2026-07-11T18:05:58.510752,1.00270197,.0088344,5.3526,66.9598,187.6976,182.2259,0,U,39256,999,4590,0,.29E-6,0
