INTELSAT 23 (IS-23)     
1 38867U 12057A   26192.83960934 -.00000281  00000+0  00000+0 0  9999
2 38867   0.0143  31.7549 0000236 152.6162 354.6151  1.00274462 50203
BEIDOU-2 G6             
1 38953U 12059A   26192.95650215 -.00000176  00000+0  00000+0 0  9991
2 38953   4.4815  73.2546 0008854 327.1699 317.7276  1.00274725 50153
LUCH-5B                 
1 38977U 12061A   26192.84691051 -.00000142  00000+0  00000+0 0  9994
2 38977  10.5335  49.6307 0003795 144.9936  23.7538  1.00270805 49859
YAMAL 300K              
1 38978U 12061B   26192.74374939  .00000076  00000+0  00000+0 0  9992
2 38978   0.0301 228.5970 0000499 354.8725 156.8961  1.00270675 49872
STAR ONE C3             
1 38991U 12062A   26192.83527600 -.00000245  00000+0  00000+0 0  9992
2 38991   0.0145 340.4284 0002287 145.2644  29.7580  1.00269526 50010
ECHOSTAR 16             
1 39008U 12065A   26190.84180039 -.00000270  00000+0  00000+0 0  9993
2 39008   0.0180  40.2507 0002124  68.3234  60.7553  1.00271627 49874
ZHONGXING-12            
1 39017U 12067A   26193.05600166 -.00000204  00000+0  00000+0 0  9996
2 39017   0.0266  97.2485 0002654  15.8541 284.5007  1.00273355 49759
YAMAL 402               
1 39022U 12070A   26191.72034983  .00000093  00000+0  00000+0 0  9991
2 39022   1.3223  83.8652 0003588  25.4313 133.5748  1.00272882 49636
MEXSAT 3                
1 39035U 12075B   26192.68478667 -.00000020  00000+0  00000+0 0  9998
2 39035   0.0165 299.8868 0000943 159.1419 322.3112  1.00269192  7292
TDRS 11                 
1 39070U 13004A   26192.74426939  .00000083  00000+0  00000+0 0  9990
2 39070   3.5566  31.6478 0004681  30.1990 321.4995  1.00278194 46933
AMAZONAS 3              
1 39078U 13006A   26192.83796266 -.00000278  00000+0  00000+0 0  9990
2 39078   0.0617 229.7622 0003153 280.7477  19.8739  1.00273416 45167
SBIRS GEO-2 (USA 241)   
1 39120U 13011A   26192.55508623 -.00000285  00000+0  00000+0 0  9999
2 39120   4.5406  52.5104 0002064  49.8800 337.0966  1.00271364 48789
EUTELSAT 117 WEST A     
1 39122U 13012A   26192.61311073 -.00000008  00000+0  00000+0 0  9993
2 39122   0.0149  38.1187 0002629  78.6527 276.6559  1.00271350 48679
ANIK G1                 
1 39127U 13014A   26192.68626000 -.00000069  00000+0  00000+0 0  9993
2 39127   0.0483 260.2995 0001620 223.4080 305.6280  1.00271162 48499
EUTELSAT 7B             
1 39163U 13022A   26192.85150385  .00000052  00000+0  00000+0 0  9990
2 39163   0.0645   6.3887 0003534  40.1665 196.7324  1.00272134 48192
WGS F5 (USA 243)        
1 39168U 13024A   26192.76836284  .00000000  00000+0  00000+0 0  9999
2 39168   0.0258  42.6036 0000402 197.5006 273.6772  1.00269367 47424
SES-6                   
1 39172U 13026A   26192.84203602 -.00000257  00000+0  00000+0 0  9992
2 39172   0.0320 312.9087 0002289 168.7125  70.7550  1.00271885 47973
IRNSS-1A                
1 39199U 13034A   26191.72043649  .00000047  00000+0  00000+0 0  9995
2 39199  35.7704  63.5328 0017567 183.4462 356.2994  1.00281941 47601
MUOS-2                  
1 39206U 13036A   26192.74166937 -.00000013  00000+0  00000+0 0  9999
2 39206   5.0429  45.5545 0052435 176.3955 146.6410  1.00271813 47438
INSAT-3D                
1 39216U 13038B   26192.80442251 -.00000337  00000+0  00000+0 0  9994
2 39216   1.9868  82.2295 0000505  84.5038 182.0874  1.00270054 47326
WGS F6 (USA 244)        
1 39222U 13041A   26192.68071331  .00000094  00000+0  00000+0 0  9997
2 39222   0.0186  33.7590 0001053 190.2224 175.4792  1.00271581 46304
GSAT-7                  
1 39234U 13044B   26192.89029160 -.00000073  00000+0  00000+0 0  9997
2 39234   0.1420  89.8484 0003215 177.1541  57.2444  1.00271116 45507
AMOS-4                  
1 39237U 13045A   26192.88938501  .00000011  00000+0  00000+0 0  9999
2 39237   0.0402 260.0148 0002367 176.2274 238.7391  1.00272238 47201
AEHF-3 (USA 246)        
1 39256U 13050A   26192.75414944  .00000029  00000+0  00000+0 0  9991
2 39256   5.3526  66.9598 0088343 187.6976 182.2259  1.00270197 45905
